LEMUR-2-GREENBERG       
1 42837U 17042N   26068.46200528  .00019778  00000+0  72539-3 0  9997
2 42837  97.3781 249.8007 0009157   4.0119 356.1192 15.27971352473146
STARLINK-32169          
1 60589U 24150G   26068.86843275  .00000414  00000+0  26105-4 0  9991
2 60589  53.1609 306.5604 0001064  74.7722 285.3397 15.30178264 88064
